{
  "type": "FeatureCollection",
  "features": [
    {
      "type": "Feature",
      "properties": {
        "norad_id": 37836,
        "name": "EUTELSAT 16A",
        "group": "eutelsat",
        "lat": -0.07394921028444702,
        "lon": -100.28128394224532,
        "alt_km": 35760.80192298457,
        "timestamp": "2025-12-11T10:53:15.556921+00:00",
        "meta_object_name": "EUTELSAT 16A",
        "meta_object_id": "2011-057A",
        "meta_epoch": "2025-12-10T23:53:24.108288",
        "meta_mean_motion": 1.00271631,
        "meta_eccentricity": 0.0005991,
        "meta_inclination": 0.0586,
        "meta_ra_of_asc_node": 5.7101,
        "meta_arg_of_pericenter": 258.3904,
        "meta_mean_anomaly": 190.2115,
        "meta_ephemeris_type": 0,
        "meta_classification_type": "U",
        "meta_norad_cat_id": 37836,
        "meta_element_set_no": 999,
        "meta_rev_at_epoch": 544,
        "meta_bstar": 0,
        "meta_mean_motion_dot": 1.09e-06,
        "meta_mean_motion_ddot": 0,
        "tle_line1": "1 37836U 11057A   25344.99541792  .00000109  00000+0  00000+0 0  9993",
        "tle_line2": "2 37836   0.0586   5.7101 0005991 258.3904 190.2115  1.00271631  5440"
      },
      "geometry": {
        "type": "Point",
        "coordinates": [
          -100.28128394224532,
          -0.07394921028444702
        ]
      }
    },
    {
      "type": "Feature",
      "properties": {
        "norad_id": 38992,
        "name": "EUTELSAT 21B",
        "group": "eutelsat",
        "lat": -0.08328115883240152,
        "lon": -94.68217764969111,
        "alt_km": 35772.078812860054,
        "timestamp": "2025-12-11T10:53:15.556933+00:00",
        "meta_object_name": "EUTELSAT 21B",
        "meta_object_id": "2012-062B",
        "meta_epoch": "2025-12-10T23:55:01.450848",
        "meta_mean_motion": 1.00271717,
        "meta_eccentricity": 0.0003311,
        "meta_inclination": 0.0663,
        "meta_ra_of_asc_node": 2.1372,
        "meta_arg_of_pericenter": 267.1313,
        "meta_mean_anomaly": 191.0465,
        "meta_ephemeris_type": 0,
        "meta_classification_type": "U",
        "meta_norad_cat_id": 38992,
        "meta_element_set_no": 999,
        "meta_rev_at_epoch": 4794,
        "meta_bstar": 0,
        "meta_mean_motion_dot": 1.35e-06,
        "meta_mean_motion_ddot": 0,
        "tle_line1": "1 38992U 12062B   25344.99654457  .00000135  00000+0  00000+0 0  9996",
        "tle_line2": "2 38992   0.0663   2.1372 0003311 267.1313 191.0465  1.00271717 47940"
      },
      "geometry": {
        "type": "Point",
        "coordinates": [
          -94.68217764969111,
          -0.08328115883240152
        ]
      }
    },
    {
      "type": "Feature",
      "properties": {
        "norad_id": 39020,
        "name": "EUTELSAT 70B",
        "group": "eutelsat",
        "lat": -0.03722213986012494,
        "lon": -45.70858690049565,
        "alt_km": 35779.424774274936,
        "timestamp": "2025-12-11T10:53:15.556945+00:00",
        "meta_object_name": "EUTELSAT 70B",
        "meta_object_id": "2012-069A",
        "meta_epoch": "2025-12-11T03:34:11.904096",
        "meta_mean_motion": 1.0027174,
        "meta_eccentricity": 0.0004341,
        "meta_inclination": 0.0633,
        "meta_ra_of_asc_node": 342.22,
        "meta_arg_of_pericenter": 263.2328,
        "meta_mean_anomaly": 318.7306,
        "meta_ephemeris_type": 0,
        "meta_classification_type": "U",
        "meta_norad_cat_id": 39020,
        "meta_element_set_no": 999,
        "meta_rev_at_epoch": 4762,
        "meta_bstar": 0,
        "meta_mean_motion_dot": -3.8e-07,
        "meta_mean_motion_ddot": 0,
        "tle_line1": "1 39020U 12069A   25345.14874889 -.00000038  00000+0  00000+0 0  9990",
        "tle_line2": "2 39020   0.0633 342.2200 0004341 263.2328 318.7306  1.00271740 47628"
      },
      "geometry": {
        "type": "Point",
        "coordinates": [
          -45.70858690049565,
          -0.03722213986012494
        ]
      }
    },
    {
      "type": "Feature",
      "properties": {
        "norad_id": 39122,
        "name": "EUTELSAT 117 WEST A",
        "group": "eutelsat",
        "lat": 0.022337119673476197,
        "lon": 126.89460749286697,
        "alt_km": 35795.29678769367,
        "timestamp": "2025-12-11T10:53:15.556958+00:00",
        "meta_object_name": "EUTELSAT 117 WEST A",
        "meta_object_id": "2013-012A",
        "meta_epoch": "2025-12-11T05:08:38.770368",
        "meta_mean_motion": 1.00271255,
        "meta_eccentricity": 0.0002988,
        "meta_inclination": 0.0133,
        "meta_ra_of_asc_node": 6.2922,
        "meta_arg_of_pericenter": 256.4978,
        "meta_mean_anomaly": 137.7439,
        "meta_ephemeris_type": 0,
        "meta_classification_type": "U",
        "meta_norad_cat_id": 39122,
        "meta_element_set_no": 999,
        "meta_rev_at_epoch": 4654,
        "meta_bstar": 0,
        "meta_mean_motion_dot": -7e-08,
        "meta_mean_motion_ddot": 0,
        "tle_line1": "1 39122U 13012A   25345.21433762 -.00000007  00000+0  00000+0 0  9997",
        "tle_line2": "2 39122   0.0133   6.2922 0002988 256.4978 137.7439  1.00271255 46541"
      },
      "geometry": {
        "type": "Point",
        "coordinates": [
          126.89460749286697,
          0.022337119673476197
        ]
      }
    },
    {
      "type": "Feature",
      "properties": {
        "norad_id": 39163,
        "name": "EUTELSAT 7B",
        "group": "eutelsat",
        "lat": -0.07441512020393574,
        "lon": -109.33175187324662,
        "alt_km": 35777.82310485679,
        "timestamp": "2025-12-11T10:53:15.556971+00:00",
        "meta_object_name": "EUTELSAT 7B",
        "meta_object_id": "2013-022A",
        "meta_epoch": "2025-12-11T03:16:21.114336",
        "meta_mean_motion": 1.00272384,
        "meta_eccentricity": 0.000461,
        "meta_inclination": 0.0721,
        "meta_ra_of_asc_node": 18.2147,
        "meta_arg_of_pericenter": 298.0665,
        "meta_mean_anomaly": 179.8987,
        "meta_ephemeris_type": 0,
        "meta_classification_type": "U",
        "meta_norad_cat_id": 39163,
        "meta_element_set_no": 999,
        "meta_rev_at_epoch": 4607,
        "meta_bstar": 0,
        "meta_mean_motion_dot": 5.4e-07,
        "meta_mean_motion_ddot": 0,
        "tle_line1": "1 39163U 13022A   25345.13635549  .00000054  00000+0  00000+0 0  9992",
        "tle_line2": "2 39163   0.0721  18.2147 0004610 298.0665 179.8987  1.00272384 46077"
      },
      "geometry": {
        "type": "Point",
        "coordinates": [
          -109.33175187324662,
          -0.07441512020393574
        ]
      }
    },
    {
      "type": "Feature",
      "properties": {
        "norad_id": 39612,
        "name": "EXPRESS-AT1",
        "group": "eutelsat",
        "lat": -0.006760159617418904,
        "lon": -60.2785525559365,
        "alt_km": 35786.209964851,
        "timestamp": "2025-12-11T10:53:15.556983+00:00",
        "meta_object_name": "EXPRESS-AT1",
        "meta_object_id": "2014-010A",
        "meta_epoch": "2025-12-11T03:30:19.775808",
        "meta_mean_motion": 1.00271105,
        "meta_eccentricity": 4.68e-05,
        "meta_inclination": 0.0142,
        "meta_ra_of_asc_node": 297.885,
        "meta_arg_of_pericenter": 272.6964,
        "meta_mean_anomaly": 338.1039,
        "meta_ephemeris_type": 0,
        "meta_classification_type": "U",
        "meta_norad_cat_id": 39612,
        "meta_element_set_no": 999,
        "meta_rev_at_epoch": 4293,
        "meta_bstar": 0,
        "meta_mean_motion_dot": 8.5e-07,
        "meta_mean_motion_ddot": 0,
        "tle_line1": "1 39612U 14010A   25345.14606222  .00000085  00000+0  00000+0 0  9990",
        "tle_line2": "2 39612   0.0142 297.8850 0000468 272.6964 338.1039  1.00271105 42935"
      },
      "geometry": {
        "type": "Point",
        "coordinates": [
          -60.2785525559365,
          -0.006760159617418904
        ]
      }
    },
    {
      "type": "Feature",
      "properties": {
        "norad_id": 39613,
        "name": "EXPRESS-AT2",
        "group": "eutelsat",
        "lat": 0.02296650374977938,
        "lon": 23.599834669022332,
        "alt_km": 35787.363451093326,
        "timestamp": "2025-12-11T10:53:15.556995+00:00",
        "meta_object_name": "EXPRESS-AT2",
        "meta_object_id": "2014-010B",
        "meta_epoch": "2025-12-11T06:08:34.749600",
        "meta_mean_motion": 1.00268348,
        "meta_eccentricity": 0.0001361,
        "meta_inclination": 0.0164,
        "meta_ra_of_asc_node": 344.6422,
        "meta_arg_of_pericenter": 306.1958,
        "meta_mean_anomaly": 21.388,
        "meta_ephemeris_type": 0,
        "meta_classification_type": "U",
        "meta_norad_cat_id": 39613,
        "meta_element_set_no": 999,
        "meta_rev_at_epoch": 4261,
        "meta_bstar": 0,
        "meta_mean_motion_dot": 0,
        "meta_mean_motion_ddot": 0,
        "tle_line1": "1 39613U 14010B   25345.25595775  .00000000  00000+0  00000+0 0  9990",
        "tle_line2": "2 39613   0.0164 344.6422 0001361 306.1958  21.3880  1.00268348 42610"
      },
      "geometry": {
        "type": "Point",
        "coordinates": [
          23.599834669022332,
          0.02296650374977938
        ]
      }
    }
  ]
}